GLOBALSTAR M045         
1 25676U 99019A   25278.22706073 -.00000050  00000+0  38051-3 0  9990
2 25676  51.9997 351.6317 0000727 105.0044 293.4118 12.27065733206905
GLOBALSTAR M019         
1 25677U 99019B   25277.96414206 -.00000133  00000+0 -45378-3 0  9998
2 25677  51.9851 130.4715 0001346 140.2524 358.6207 12.13876902198470
GLOBALSTAR M044         
1 25678U 99019C   25277.87514005 -.00000053  00000+0  42327-3 0  9998
2 25678  51.9949  95.7995 0005273 248.0079 256.2236 11.90260641184388
GLOBALSTAR M042         
1 25679U 99019D   25278.01250396 -.00000024  00000+0  64012-3 0  9999
2 25679  51.9993 100.9116 0003374 149.0152  20.4065 12.22088906198681
GLOBALSTAR M025         
1 25770U 99031A   25278.10179514 -.00000075  00000+0 -24089-3 0  9994
2 25770  51.9805 264.6472 0002281 333.7452 103.4111 11.22558320494054
GLOBALSTAR M049         
1 25771U 99031B   25278.09432006 -.00000139  00000+0 -25662-2 0  9999
2 25771  51.9886 304.9539 0002697 202.9565 157.1111 11.12120711129654
GLOBALSTAR M047         
1 25772U 99031C   25278.18060355 -.00000054  00000+0  44098-3 0  9994
2 25772  51.9830 291.2180 0016490  91.3741 268.8954 11.31930129483567
GLOBALSTAR M052         
1 25773U 99031D   25277.89192837 -.00000090  00000+0 -79493-3 0  9991
2 25773  51.9882  52.5357 0002422  13.8013 164.7516 11.15060966490741
